{"type": "FeatureCollection", "features": [{"type": "Feature", "geometry": {"type": "Point", "coordinates": [13.678754, 46.439199]}, "properties": {"country": "SI", "name": "Bivacco Alberto Busettini", "alt_name": "Bivacco CAI Tarvisio", "is_bivouac": true, "evidence": "shelter_type+name", "ele_m": 2149.0, "capacity": "9", "operator": "CAI Tarvisio", "tourism": "", "shelter_type": "basic_hut", "website": "https://www.cai-fvg.it/sentieri-e-rifugi/rifugi-e-opere-alpine/opere-alpine/503-bivacco-busettini/", "wikidata": "", "image_url": "", "image_source": "", "image_alt": "", "osm_type": "way", "osm_id": 36021563, "osm_url": "https://www.openstreetmap.org/way/36021563"}}, {"type": "Feature", "geometry": {"type": "Point", "coordinates": [13.819282, 46.438398]}, "properties": {"country": "SI", "name": "Bivak I v Veliki Dnini", "alt_name": "", "is_bivouac": true, "evidence": "shelter_type+name", "ele_m": 2140.0, "capacity": "4", "operator": "PD Jesenice", "tourism": "", "shelter_type": "basic_hut", "website": "", "wikidata": "", "image_url": "", "image_source": "", "image_alt": "", "osm_type": "node", "osm_id": 1777867914, "osm_url": "https://www.openstreetmap.org/node/1777867914"}}, {"type": "Feature", "geometry": {"type": "Point", "coordinates": [13.83856, 46.433619]}, "properties": {"country": "SI", "name": "Bivak II na Jezerih", "alt_name": "", "is_bivouac": true, "evidence": "shelter_type+name", "ele_m": 2118.0, "capacity": "", "operator": "", "tourism": "", "shelter_type": "basic_hut", "website": "http://www.alpinizem.net/?page_id=437", "wikidata": "Q12785938", "image_url": "https://commons.wikimedia.org/wiki/Special:FilePath/Bivak_II_Pod_Rokavi.JPG", "image_source": "wikidata:P18", "image_alt": "", "osm_type": "way", "osm_id": 493049052, "osm_url": "https://www.openstreetmap.org/way/493049052"}}, {"type": "Feature", "geometry": {"type": "Point", "coordinates": [13.454166, 46.34989]}, "properties": {"country": "SI", "name": "Jamarski bivak", "alt_name": "", "is_bivouac": true, "evidence": "shelter_type+name", "ele_m": 2112.0, "capacity": "", "operator": "Jamarska zveza Slovenije", "tourism": "", "shelter_type": "basic_hut", "website": "", "wikidata": "", "image_url": "", "image_source": "", "image_alt": "", "osm_type": "node", "osm_id": 927280408, "osm_url": "https://www.openstreetmap.org/node/927280408"}}, {"type": "Feature", "geometry": {"type": "Point", "coordinates": [14.54729, 46.353354]}, "properties": {"country": "SI", "name": "Bivak Pavla Kemperla", "alt_name": "Bivak pod Grintovcem", "is_bivouac": true, "evidence": "wilderness_hut+name", "ele_m": 2102.0, "capacity": "8", "operator": "Društvo Gorske reševalne službe Kamnik", "tourism": "wilderness_hut", "shelter_type": "weather_shelter", "website": "https://www.pzs.si/koce.php?pid=110", "wikidata": "", "image_url": "", "image_source": "", "image_alt": "", "osm_type": "node", "osm_id": 1843185516, "osm_url": "https://www.openstreetmap.org/node/1843185516"}}, {"type": "Feature", "geometry": {"type": "Point", "coordinates": [14.567909, 46.358914]}, "properties": {"country": "SI", "name": "Bivak pod Skuto na Malih podih", "alt_name": "", "is_bivouac": true, "evidence": "wilderness_hut+name", "ele_m": 2045.0, "capacity": "10", "operator": "", "tourism": "wilderness_hut", "shelter_type": "weather_shelter", "website": "https://www.pd-ljmatica.si/koce/bivak-pod-skuto/", "wikidata": "", "image_url": "", "image_source": "", "image_alt": "", "osm_type": "node", "osm_id": 1843185010, "osm_url": "https://www.openstreetmap.org/node/1843185010"}}, {"type": "Feature", "geometry": {"type": "Point", "coordinates": [13.819869, 46.417503]}, "properties": {"country": "SI", "name": "Bivak IV. Na rušju", "alt_name": "", "is_bivouac": true, "evidence": "shelter_type+name", "ele_m": 1980.0, "capacity": "", "operator": "", "tourism": "", "shelter_type": "basic_hut", "website": "", "wikidata": "", "image_url": "", "image_source": "", "image_alt": "", "osm_type": "way", "osm_id": 493046348, "osm_url": "https://www.openstreetmap.org/way/493046348"}}, {"type": "Feature", "geometry": {"type": "Point", "coordinates": [13.687825, 46.430382]}, "properties": {"country": "SI", "name": "Bivak na Kotovem sedlu", "alt_name": "", "is_bivouac": true, "evidence": "shelter_type+name", "ele_m": 1975.0, "capacity": "", "operator": "", "tourism": "", "shelter_type": "basic_hut", "website": "", "wikidata": "", "image_url": "", "image_source": "", "image_alt": "", "osm_type": "node", "osm_id": 1366937100, "osm_url": "https://www.openstreetmap.org/node/1366937100"}}, {"type": "Feature", "geometry": {"type": "Point", "coordinates": [14.524449, 46.350779]}, "properties": {"country": "SI", "name": "Bivak v Kočni", "alt_name": "", "is_bivouac": true, "evidence": "shelter_type+name", "ele_m": 1952.0, "capacity": "8", "operator": "", "tourism": "", "shelter_type": "basic_hut", "website": "", "wikidata": "", "image_url": "", "image_source": "", "image_alt": "", "osm_type": "node", "osm_id": 1332392711, "osm_url": "https://www.openstreetmap.org/node/1332392711"}}, {"type": "Feature", "geometry": {"type": "Point", "coordinates": [14.673779, 46.361108]}, "properties": {"country": "SI", "name": "Jamarski bivak na Molički planini", "alt_name": "", "is_bivouac": true, "evidence": "shelter_type+name", "ele_m": 1910.0, "capacity": "", "operator": "Jamarski klub Speleos - Siga Velenje", "tourism": "", "shelter_type": "basic_hut", "website": "", "wikidata": "", "image_url": "", "image_source": "", "image_alt": "", "osm_type": "way", "osm_id": 1275656952, "osm_url": "https://www.openstreetmap.org/way/1275656952"}}, {"type": "Feature", "geometry": {"type": "Point", "coordinates": [13.802264, 46.243629]}, "properties": {"country": "SI", "name": "Bivak na prevalu Globoko", "alt_name": "Bivak Globoko", "is_bivouac": true, "evidence": "wilderness_hut+name", "ele_m": 1828.0, "capacity": "2", "operator": "PD Tolmin", "tourism": "wilderness_hut", "shelter_type": "weather_shelter", "website": "", "wikidata": "Q105774500", "image_url": "", "image_source": "", "image_alt": "", "osm_type": "way", "osm_id": 382295171, "osm_url": "https://www.openstreetmap.org/way/382295171"}}, {"type": "Feature", "geometry": {"type": "Point", "coordinates": [14.13463, 46.444398]}, "properties": {"country": "SI", "name": "Bivak na Belščici", "alt_name": "", "is_bivouac": true, "evidence": "wilderness_hut+name", "ele_m": 1750.0, "capacity": "", "operator": "", "tourism": "wilderness_hut", "shelter_type": "weather_shelter", "website": "", "wikidata": "", "image_url": "", "image_source": "", "image_alt": "", "osm_type": "way", "osm_id": 1298496303, "osm_url": "https://www.openstreetmap.org/way/1298496303"}}, {"type": "Feature", "geometry": {"type": "Point", "coordinates": [14.400169, 46.352785]}, "properties": {"country": "SI", "name": "Bivak v Storžiču", "alt_name": "", "is_bivouac": true, "evidence": "shelter_type+wilderness_hut+name", "ele_m": 1750.0, "capacity": "4", "operator": "Planinsko društvo Tržič", "tourism": "wilderness_hut", "shelter_type": "basic_hut", "website": "https://www.planinske-koce.si/bivak_pod_storzicem", "wikidata": "", "image_url": "", "image_source": "", "image_alt": "", "osm_type": "way", "osm_id": 483491369, "osm_url": "https://www.openstreetmap.org/way/483491369"}}, {"type": "Feature", "geometry": {"type": "Point", "coordinates": [14.547883, 46.307185]}, "properties": {"country": "SI", "name": "Koča Koren", "alt_name": "Pastirska koča na planini Koren", "is_bivouac": true, "evidence": "shelter_type", "ele_m": 1672.0, "capacity": "", "operator": "", "tourism": "", "shelter_type": "basic_hut", "website": "", "wikidata": "", "image_url": "", "image_source": "", "image_alt": "", "osm_type": "way", "osm_id": 496611412, "osm_url": "https://www.openstreetmap.org/way/496611412"}}, {"type": "Feature", "geometry": {"type": "Point", "coordinates": [13.935925, 46.512399]}, "properties": {"country": "SI", "name": "Biwakschachtel Annahütte", "alt_name": "", "is_bivouac": true, "evidence": "shelter_type+name", "ele_m": 1580.0, "capacity": "", "operator": "", "tourism": "", "shelter_type": "basic_hut", "website": "", "wikidata": "", "image_url": "https://commons.wikimedia.org/wiki/Special:FilePath/Grenzstein_%C3%96sterreich-Slowenien_am_Annah%C3%BCttensattel_%2820926079762%29.jpg", "image_source": "commons:name-match<300m", "image_alt": "https://commons.wikimedia.org/wiki/Special:FilePath/Annah%C3%BCttensattel_%2820747764270%29.jpg", "osm_type": "way", "osm_id": 229925679, "osm_url": "https://www.openstreetmap.org/way/229925679"}}, {"type": "Feature", "geometry": {"type": "Point", "coordinates": [13.413933, 46.287371]}, "properties": {"country": "SI", "name": "Bivak pod Muzcem", "alt_name": "", "is_bivouac": true, "evidence": "wilderness_hut+name", "ele_m": 1529.0, "capacity": "", "operator": "", "tourism": "wilderness_hut", "shelter_type": "weather_shelter", "website": "", "wikidata": "Q105757089", "image_url": "https://commons.wikimedia.org/wiki/Special:FilePath/Bivak-pod-muzcem-1550m.jpg", "image_source": "osm:commons", "image_alt": "", "osm_type": "way", "osm_id": 1160921790, "osm_url": "https://www.openstreetmap.org/way/1160921790"}}, {"type": "Feature", "geometry": {"type": "Point", "coordinates": [13.821806, 46.391213]}, "properties": {"country": "SI", "name": "Bivak pod Luknjo", "alt_name": "", "is_bivouac": true, "evidence": "shelter_type+name", "ele_m": 1494.0, "capacity": "10", "operator": "", "tourism": "", "shelter_type": "basic_hut", "website": "", "wikidata": "Q105758232", "image_url": "", "image_source": "", "image_alt": "", "osm_type": "way", "osm_id": 293179346, "osm_url": "https://www.openstreetmap.org/way/293179346"}}, {"type": "Feature", "geometry": {"type": "Point", "coordinates": [13.755917, 46.242341]}, "properties": {"country": "SI", "name": "", "alt_name": "", "is_bivouac": true, "evidence": "wilderness_hut", "ele_m": 1490.0, "capacity": "", "operator": "", "tourism": "wilderness_hut", "shelter_type": "", "website": "", "wikidata": "", "image_url": "", "image_source": "", "image_alt": "", "osm_type": "way", "osm_id": 436538916, "osm_url": "https://www.openstreetmap.org/way/436538916"}}, {"type": "Feature", "geometry": {"type": "Point", "coordinates": [13.825342, 46.248929]}, "properties": {"country": "SI", "name": "Koča na Zadnjem Voglu", "alt_name": "", "is_bivouac": true, "evidence": "wilderness_hut", "ele_m": 1445.0, "capacity": "8", "operator": "Mladinski odsek PD Jesenic", "tourism": "wilderness_hut", "shelter_type": "", "website": "http://pdjesenice-drustvo.si/sl/nase-koce/zavetisca-in-bivaki/", "wikidata": "", "image_url": "", "image_source": "", "image_alt": "", "osm_type": "way", "osm_id": 1151586050, "osm_url": "https://www.openstreetmap.org/way/1151586050"}}, {"type": "Feature", "geometry": {"type": "Point", "coordinates": [13.818338, 46.457058]}, "properties": {"country": "SI", "name": "Bivak pod Špikom", "alt_name": "", "is_bivouac": true, "evidence": "shelter_type+name", "ele_m": 1424.0, "capacity": "", "operator": "", "tourism": "", "shelter_type": "basic_hut", "website": "https://pd-gozdmartuljek.si/?Na%C5%A1e_dejavnosti:Bivak_pod_%C5%A0pikom", "wikidata": "Q105757676", "image_url": "", "image_source": "", "image_alt": "", "osm_type": "way", "osm_id": 478096432, "osm_url": "https://www.openstreetmap.org/way/478096432"}}, {"type": "Feature", "geometry": {"type": "Point", "coordinates": [13.836941, 46.459119]}, "properties": {"country": "SI", "name": "Bivak III za Akom", "alt_name": "", "is_bivouac": true, "evidence": "shelter_type+name", "ele_m": 1340.0, "capacity": "", "operator": "", "tourism": "", "shelter_type": "basic_hut", "website": "", "wikidata": "", "image_url": "", "image_source": "", "image_alt": "", "osm_type": "node", "osm_id": 2914618202, "osm_url": "https://www.openstreetmap.org/node/2914618202"}}, {"type": "Feature", "geometry": {"type": "Point", "coordinates": [14.244562, 46.429742]}, "properties": {"country": "SI", "name": "Koča Vrtača", "alt_name": "", "is_bivouac": true, "evidence": "wilderness_hut", "ele_m": 1288.0, "capacity": "", "operator": "", "tourism": "wilderness_hut", "shelter_type": "", "website": "", "wikidata": "", "image_url": "", "image_source": "", "image_alt": "", "osm_type": "way", "osm_id": 1240260171, "osm_url": "https://www.openstreetmap.org/way/1240260171"}}, {"type": "Feature", "geometry": {"type": "Point", "coordinates": [14.73949, 46.315188]}, "properties": {"country": "SI", "name": "Bivak na Kalu", "alt_name": "", "is_bivouac": true, "evidence": "shelter_type+name", "ele_m": 1285.0, "capacity": "", "operator": "", "tourism": "", "shelter_type": "basic_hut", "website": "", "wikidata": "", "image_url": "", "image_source": "", "image_alt": "", "osm_type": "way", "osm_id": 1148452122, "osm_url": "https://www.openstreetmap.org/way/1148452122"}}, {"type": "Feature", "geometry": {"type": "Point", "coordinates": [13.515119, 46.266925]}, "properties": {"country": "SI", "name": "Bivak Hlek", "alt_name": "", "is_bivouac": true, "evidence": "wilderness_hut+name", "ele_m": 1224.0, "capacity": "", "operator": "", "tourism": "wilderness_hut", "shelter_type": "", "website": "", "wikidata": "Q58335846", "image_url": "https://commons.wikimedia.org/wiki/Special:FilePath/Bivak_Hlek.jpg", "image_source": "osm:commons", "image_alt": "", "osm_type": "way", "osm_id": 1285614298, "osm_url": "https://www.openstreetmap.org/way/1285614298"}}, {"type": "Feature", "geometry": {"type": "Point", "coordinates": [13.643091, 46.264741]}, "properties": {"country": "SI", "name": "Bivak na Črniku nad Drežnico", "alt_name": "", "is_bivouac": true, "evidence": "wilderness_hut+name", "ele_m": 1160.0, "capacity": "", "operator": "", "tourism": "wilderness_hut", "shelter_type": "", "website": "https://pzs.si/mountain-huts/61/", "wikidata": "Q105757636", "image_url": "", "image_source": "", "image_alt": "", "osm_type": "node", "osm_id": 4339683953, "osm_url": "https://www.openstreetmap.org/node/4339683953"}}, {"type": "Feature", "geometry": {"type": "Point", "coordinates": [15.152836, 46.192335]}, "properties": {"country": "SI", "name": "Bivak Florjana Šona", "alt_name": "", "is_bivouac": true, "evidence": "shelter_type+name", "ele_m": 1090.0, "capacity": "", "operator": "PD Zabukovica", "tourism": "", "shelter_type": "basic_hut", "website": "", "wikidata": "", "image_url": "", "image_source": "", "image_alt": "", "osm_type": "node", "osm_id": 1779387672, "osm_url": "https://www.openstreetmap.org/node/1779387672"}}, {"type": "Feature", "geometry": {"type": "Point", "coordinates": [13.713946, 46.487988]}, "properties": {"country": "SI", "name": "Planinsko zavetišče Slatna", "alt_name": "", "is_bivouac": true, "evidence": "wilderness_hut", "ele_m": 1023.0, "capacity": "", "operator": "PD Lisca", "tourism": "wilderness_hut", "shelter_type": "", "website": "", "wikidata": "Q105757915", "image_url": "", "image_source": "", "image_alt": "", "osm_type": "way", "osm_id": 1249002221, "osm_url": "https://www.openstreetmap.org/way/1249002221"}}, {"type": "Feature", "geometry": {"type": "Point", "coordinates": [14.603957, 46.393856]}, "properties": {"country": "SI", "name": "Bajta", "alt_name": "", "is_bivouac": true, "evidence": "wilderness_hut", "ele_m": 988.0, "capacity": "8", "operator": "", "tourism": "wilderness_hut", "shelter_type": "", "website": "", "wikidata": "", "image_url": "", "image_source": "", "image_alt": "", "osm_type": "way", "osm_id": 1099729800, "osm_url": "https://www.openstreetmap.org/way/1099729800"}}, {"type": "Feature", "geometry": {"type": "Point", "coordinates": [13.830249, 46.470681]}, "properties": {"country": "SI", "name": "Lipovčeva koča", "alt_name": "", "is_bivouac": true, "evidence": "wilderness_hut", "ele_m": 920.0, "capacity": "", "operator": "Mladinski odsek PD Jesenic", "tourism": "wilderness_hut", "shelter_type": "", "website": "", "wikidata": "", "image_url": "", "image_source": "", "image_alt": "", "osm_type": "way", "osm_id": 966475156, "osm_url": "https://www.openstreetmap.org/way/966475156"}}, {"type": "Feature", "geometry": {"type": "Point", "coordinates": [13.567706, 46.384175]}, "properties": {"country": "SI", "name": "Bivak ob Počitniškem domu v Možnici", "alt_name": "", "is_bivouac": true, "evidence": "shelter_type+wilderness_hut+name", "ele_m": 793.0, "capacity": "", "operator": "", "tourism": "wilderness_hut", "shelter_type": "basic_hut", "website": "", "wikidata": "", "image_url": "", "image_source": "", "image_alt": "", "osm_type": "way", "osm_id": 1079714872, "osm_url": "https://www.openstreetmap.org/way/1079714872"}}, {"type": "Feature", "geometry": {"type": "Point", "coordinates": [14.450067, 45.925265]}, "properties": {"country": "SI", "name": "Koča na Kavcu", "alt_name": "", "is_bivouac": true, "evidence": "wilderness_hut", "ele_m": 730.0, "capacity": "", "operator": "", "tourism": "wilderness_hut", "shelter_type": "", "website": "https://www.hribi.net/slika_pot/lovska_koca_plehanov_laz_koca_na_kavcu/109266", "wikidata": "", "image_url": "", "image_source": "", "image_alt": "", "osm_type": "way", "osm_id": 673127325, "osm_url": "https://www.openstreetmap.org/way/673127325"}}, {"type": "Feature", "geometry": {"type": "Point", "coordinates": [13.588109, 46.256713]}, "properties": {"country": "SI", "name": "", "alt_name": "", "is_bivouac": true, "evidence": "wilderness_hut", "ele_m": "", "capacity": "", "operator": "", "tourism": "wilderness_hut", "shelter_type": "", "website": "", "wikidata": "", "image_url": "", "image_source": "", "image_alt": "", "osm_type": "node", "osm_id": 12240648993, "osm_url": "https://www.openstreetmap.org/node/12240648993"}}, {"type": "Feature", "geometry": {"type": "Point", "coordinates": [13.530732, 46.319424]}, "properties": {"country": "SI", "name": "", "alt_name": "", "is_bivouac": true, "evidence": "shelter_type", "ele_m": "", "capacity": "", "operator": "", "tourism": "", "shelter_type": "basic_hut", "website": "", "wikidata": "", "image_url": "", "image_source": "", "image_alt": "", "osm_type": "node", "osm_id": 12254859248, "osm_url": "https://www.openstreetmap.org/node/12254859248"}}, {"type": "Feature", "geometry": {"type": "Point", "coordinates": [14.164859, 46.053973]}, "properties": {"country": "SI", "name": "", "alt_name": "", "is_bivouac": true, "evidence": "wilderness_hut", "ele_m": "", "capacity": "", "operator": "", "tourism": "wilderness_hut", "shelter_type": "", "website": "", "wikidata": "", "image_url": "", "image_source": "", "image_alt": "", "osm_type": "node", "osm_id": 12570805366, "osm_url": "https://www.openstreetmap.org/node/12570805366"}}, {"type": "Feature", "geometry": {"type": "Point", "coordinates": [13.756025, 46.242348]}, "properties": {"country": "SI", "name": "", "alt_name": "", "is_bivouac": true, "evidence": "shelter_type", "ele_m": "", "capacity": "", "operator": "", "tourism": "", "shelter_type": "basic_hut", "website": "", "wikidata": "", "image_url": "", "image_source": "", "image_alt": "", "osm_type": "way", "osm_id": 436538914, "osm_url": "https://www.openstreetmap.org/way/436538914"}}, {"type": "Feature", "geometry": {"type": "Point", "coordinates": [14.529255, 45.817215]}, "properties": {"country": "SI", "name": "", "alt_name": "", "is_bivouac": true, "evidence": "wilderness_hut", "ele_m": "", "capacity": "", "operator": "", "tourism": "wilderness_hut", "shelter_type": "", "website": "", "wikidata": "", "image_url": "", "image_source": "", "image_alt": "", "osm_type": "way", "osm_id": 936252303, "osm_url": "https://www.openstreetmap.org/way/936252303"}}, {"type": "Feature", "geometry": {"type": "Point", "coordinates": [14.518008, 46.047004]}, "properties": {"country": "SI", "name": "", "alt_name": "", "is_bivouac": true, "evidence": "shelter_type", "ele_m": "", "capacity": "", "operator": "", "tourism": "", "shelter_type": "basic_hut", "website": "", "wikidata": "", "image_url": "", "image_source": "", "image_alt": "", "osm_type": "way", "osm_id": 975721529, "osm_url": "https://www.openstreetmap.org/way/975721529"}}, {"type": "Feature", "geometry": {"type": "Point", "coordinates": [14.416351, 46.40679]}, "properties": {"country": "SI", "name": "", "alt_name": "", "is_bivouac": true, "evidence": "wilderness_hut", "ele_m": "", "capacity": "", "operator": "", "tourism": "wilderness_hut", "shelter_type": "", "website": "", "wikidata": "", "image_url": "", "image_source": "", "image_alt": "", "osm_type": "way", "osm_id": 1215609498, "osm_url": "https://www.openstreetmap.org/way/1215609498"}}, {"type": "Feature", "geometry": {"type": "Point", "coordinates": [13.543021, 46.363216]}, "properties": {"country": "SI", "name": "", "alt_name": "", "is_bivouac": true, "evidence": "wilderness_hut", "ele_m": "", "capacity": "", "operator": "", "tourism": "wilderness_hut", "shelter_type": "", "website": "", "wikidata": "", "image_url": "", "image_source": "", "image_alt": "", "osm_type": "way", "osm_id": 1524341692, "osm_url": "https://www.openstreetmap.org/way/1524341692"}}, {"type": "Feature", "geometry": {"type": "Point", "coordinates": [13.626136, 45.533491]}, "properties": {"country": "SI", "name": "", "alt_name": "", "is_bivouac": true, "evidence": "shelter_type", "ele_m": "", "capacity": "", "operator": "", "tourism": "", "shelter_type": "basic_hut", "website": "", "wikidata": "", "image_url": "", "image_source": "", "image_alt": "", "osm_type": "way", "osm_id": 1554333451, "osm_url": "https://www.openstreetmap.org/way/1554333451"}}, {"type": "Feature", "geometry": {"type": "Point", "coordinates": [14.060297, 46.423286]}, "properties": {"country": "SI", "name": "Bivak Stebrasta skala", "alt_name": "Žakeljnov bivak", "is_bivouac": true, "evidence": "shelter_type+name", "ele_m": "", "capacity": "", "operator": "", "tourism": "", "shelter_type": "basic_hut", "website": "", "wikidata": "", "image_url": "", "image_source": "", "image_alt": "", "osm_type": "way", "osm_id": 1148841826, "osm_url": "https://www.openstreetmap.org/way/1148841826"}}, {"type": "Feature", "geometry": {"type": "Point", "coordinates": [13.475845, 46.34371]}, "properties": {"country": "SI", "name": "Bivak gorskih reševalcev", "alt_name": "", "is_bivouac": true, "evidence": "shelter_type+name", "ele_m": "", "capacity": "", "operator": "", "tourism": "", "shelter_type": "basic_hut", "website": "", "wikidata": "", "image_url": "", "image_source": "", "image_alt": "", "osm_type": "way", "osm_id": 983702524, "osm_url": "https://www.openstreetmap.org/way/983702524"}}, {"type": "Feature", "geometry": {"type": "Point", "coordinates": [14.762412, 46.254151]}, "properties": {"country": "SI", "name": "Bivak na Javoršku", "alt_name": "", "is_bivouac": true, "evidence": "shelter_type+name", "ele_m": "", "capacity": "", "operator": "", "tourism": "", "shelter_type": "basic_hut", "website": "", "wikidata": "", "image_url": "", "image_source": "", "image_alt": "", "osm_type": "way", "osm_id": 1217504448, "osm_url": "https://www.openstreetmap.org/way/1217504448"}}, {"type": "Feature", "geometry": {"type": "Point", "coordinates": [14.580612, 46.287507]}, "properties": {"country": "SI", "name": "Bivak na Kamniškem vrhu", "alt_name": "", "is_bivouac": true, "evidence": "shelter_type+name", "ele_m": "", "capacity": "", "operator": "", "tourism": "", "shelter_type": "basic_hut", "website": "", "wikidata": "", "image_url": "", "image_source": "", "image_alt": "", "osm_type": "way", "osm_id": 802539935, "osm_url": "https://www.openstreetmap.org/way/802539935"}}, {"type": "Feature", "geometry": {"type": "Point", "coordinates": [13.926537, 46.153885]}, "properties": {"country": "SI", "name": "Bivak na Kojci", "alt_name": "", "is_bivouac": true, "evidence": "shelter_type+name", "ele_m": "", "capacity": "", "operator": "", "tourism": "", "shelter_type": "basic_hut", "website": "", "wikidata": "", "image_url": "", "image_source": "", "image_alt": "", "osm_type": "way", "osm_id": 1129502605, "osm_url": "https://www.openstreetmap.org/way/1129502605"}}, {"type": "Feature", "geometry": {"type": "Point", "coordinates": [13.792226, 46.357786]}, "properties": {"country": "SI", "name": "Bivak na Prehodavcih – zimska soba", "alt_name": "", "is_bivouac": true, "evidence": "shelter_type+name", "ele_m": "", "capacity": "24", "operator": "", "tourism": "", "shelter_type": "basic_hut", "website": "", "wikidata": "", "image_url": "https://static1.squarespace.com/static/5458d569e4b07b86a4d3eb45/t/56786fe8df40f3876ba8cf6a/1450733546665", "image_source": "osm:image", "image_alt": "", "osm_type": "way", "osm_id": 389087841, "osm_url": "https://www.openstreetmap.org/way/389087841"}}, {"type": "Feature", "geometry": {"type": "Point", "coordinates": [14.533223, 45.835858]}, "properties": {"country": "SI", "name": "Bivak – Evropska pešpot E6/E7", "alt_name": "", "is_bivouac": true, "evidence": "shelter_type+name", "ele_m": "", "capacity": "", "operator": "", "tourism": "", "shelter_type": "basic_hut", "website": "", "wikidata": "", "image_url": "", "image_source": "", "image_alt": "", "osm_type": "way", "osm_id": 1081173866, "osm_url": "https://www.openstreetmap.org/way/1081173866"}}, {"type": "Feature", "geometry": {"type": "Point", "coordinates": [15.104702, 46.206791]}, "properties": {"country": "SI", "name": "Blažev bivak na Golavi", "alt_name": "", "is_bivouac": true, "evidence": "shelter_type+name", "ele_m": "", "capacity": "", "operator": "", "tourism": "", "shelter_type": "basic_hut", "website": "", "wikidata": "", "image_url": "", "image_source": "", "image_alt": "", "osm_type": "node", "osm_id": 11495016787, "osm_url": "https://www.openstreetmap.org/node/11495016787"}}, {"type": "Feature", "geometry": {"type": "Point", "coordinates": [14.063885, 45.827813]}, "properties": {"country": "SI", "name": "Cetinova koča", "alt_name": "", "is_bivouac": true, "evidence": "shelter_type", "ele_m": "", "capacity": "", "operator": "", "tourism": "", "shelter_type": "basic_hut", "website": "", "wikidata": "", "image_url": "", "image_source": "", "image_alt": "", "osm_type": "way", "osm_id": 1188148820, "osm_url": "https://www.openstreetmap.org/way/1188148820"}}, {"type": "Feature", "geometry": {"type": "Point", "coordinates": [14.312629, 46.309468]}, "properties": {"country": "SI", "name": "Hišica dobrega počutja", "alt_name": "", "is_bivouac": true, "evidence": "wilderness_hut", "ele_m": "", "capacity": "", "operator": "", "tourism": "wilderness_hut", "shelter_type": "", "website": "", "wikidata": "", "image_url": "", "image_source": "", "image_alt": "", "osm_type": "node", "osm_id": 14157655450, "osm_url": "https://www.openstreetmap.org/node/14157655450"}}, {"type": "Feature", "geometry": {"type": "Point", "coordinates": [14.24181, 45.910765]}, "properties": {"country": "SI", "name": "Jamarska koča", "alt_name": "", "is_bivouac": true, "evidence": "shelter_type", "ele_m": "", "capacity": "", "operator": "", "tourism": "", "shelter_type": "basic_hut", "website": "", "wikidata": "", "image_url": "", "image_source": "", "image_alt": "", "osm_type": "way", "osm_id": 906387005, "osm_url": "https://www.openstreetmap.org/way/906387005"}}, {"type": "Feature", "geometry": {"type": "Point", "coordinates": [15.766647, 46.25513]}, "properties": {"country": "SI", "name": "Koserjeva koča (LD Rogatec)", "alt_name": "", "is_bivouac": true, "evidence": "shelter_type", "ele_m": "", "capacity": "", "operator": "", "tourism": "hunting_lodge", "shelter_type": "basic_hut", "website": "", "wikidata": "", "image_url": "", "image_source": "", "image_alt": "", "osm_type": "way", "osm_id": 1312907310, "osm_url": "https://www.openstreetmap.org/way/1312907310"}}, {"type": "Feature", "geometry": {"type": "Point", "coordinates": [14.692529, 46.054221]}, "properties": {"country": "SI", "name": "Koča Breza", "alt_name": "", "is_bivouac": true, "evidence": "wilderness_hut", "ele_m": "", "capacity": "", "operator": "Društvo tabornikov Rod Črnega mrava", "tourism": "wilderness_hut", "shelter_type": "", "website": "https://www.crnimrav.si/koca-z-idejo", "wikidata": "", "image_url": "", "image_source": "", "image_alt": "", "osm_type": "way", "osm_id": 520513854, "osm_url": "https://www.openstreetmap.org/way/520513854"}}, {"type": "Feature", "geometry": {"type": "Point", "coordinates": [14.299043, 45.913061]}, "properties": {"country": "SI", "name": "Kurirska postaja TV 17", "alt_name": "", "is_bivouac": true, "evidence": "shelter_type", "ele_m": "", "capacity": "", "operator": "", "tourism": "", "shelter_type": "basic_hut", "website": "", "wikidata": "", "image_url": "", "image_source": "", "image_alt": "", "osm_type": "node", "osm_id": 11456235457, "osm_url": "https://www.openstreetmap.org/node/11456235457"}}, {"type": "Feature", "geometry": {"type": "Point", "coordinates": [14.106812, 45.534384]}, "properties": {"country": "SI", "name": "Lovska koča", "alt_name": "", "is_bivouac": true, "evidence": "wilderness_hut", "ele_m": "", "capacity": "", "operator": "", "tourism": "wilderness_hut", "shelter_type": "", "website": "", "wikidata": "", "image_url": "", "image_source": "", "image_alt": "", "osm_type": "way", "osm_id": 1251145103, "osm_url": "https://www.openstreetmap.org/way/1251145103"}}, {"type": "Feature", "geometry": {"type": "Point", "coordinates": [13.485217, 46.240314]}, "properties": {"country": "SI", "name": "Lovska koča na Miji", "alt_name": "", "is_bivouac": true, "evidence": "wilderness_hut", "ele_m": "", "capacity": "", "operator": "", "tourism": "wilderness_hut", "shelter_type": "", "website": "", "wikidata": "", "image_url": "", "image_source": "", "image_alt": "", "osm_type": "way", "osm_id": 1274574221, "osm_url": "https://www.openstreetmap.org/way/1274574221"}}, {"type": "Feature", "geometry": {"type": "Point", "coordinates": [14.56424, 46.331207]}, "properties": {"country": "SI", "name": "Lovska koča Črnevka", "alt_name": "Lovska koča pod Kalškim grebenom", "is_bivouac": true, "evidence": "shelter_type", "ele_m": "", "capacity": "", "operator": "", "tourism": "hunting_lodge", "shelter_type": "basic_hut", "website": "", "wikidata": "", "image_url": "", "image_source": "", "image_alt": "", "osm_type": "way", "osm_id": 607958215, "osm_url": "https://www.openstreetmap.org/way/607958215"}}, {"type": "Feature", "geometry": {"type": "Point", "coordinates": [13.771173, 45.826506]}, "properties": {"country": "SI", "name": "Miškova hiša", "alt_name": "", "is_bivouac": true, "evidence": "wilderness_hut", "ele_m": "", "capacity": "", "operator": "", "tourism": "wilderness_hut", "shelter_type": "", "website": "", "wikidata": "", "image_url": "", "image_source": "", "image_alt": "", "osm_type": "way", "osm_id": 1178532261, "osm_url": "https://www.openstreetmap.org/way/1178532261"}}, {"type": "Feature", "geometry": {"type": "Point", "coordinates": [14.024773, 45.791338]}, "properties": {"country": "SI", "name": "Podraška bajta", "alt_name": "", "is_bivouac": true, "evidence": "wilderness_hut", "ele_m": "", "capacity": "4", "operator": "", "tourism": "wilderness_hut", "shelter_type": "", "website": "", "wikidata": "", "image_url": "", "image_source": "", "image_alt": "", "osm_type": "way", "osm_id": 485004848, "osm_url": "https://www.openstreetmap.org/way/485004848"}}, {"type": "Feature", "geometry": {"type": "Point", "coordinates": [14.239414, 46.005476]}, "properties": {"country": "SI", "name": "Polharska Koča", "alt_name": "", "is_bivouac": true, "evidence": "wilderness_hut", "ele_m": "", "capacity": "", "operator": "", "tourism": "wilderness_hut", "shelter_type": "", "website": "", "wikidata": "", "image_url": "", "image_source": "", "image_alt": "", "osm_type": "node", "osm_id": 11577769870, "osm_url": "https://www.openstreetmap.org/node/11577769870"}}, {"type": "Feature", "geometry": {"type": "Point", "coordinates": [14.064546, 45.833269]}, "properties": {"country": "SI", "name": "Polhova koča", "alt_name": "", "is_bivouac": true, "evidence": "shelter_type", "ele_m": "", "capacity": "", "operator": "", "tourism": "", "shelter_type": "basic_hut", "website": "", "wikidata": "", "image_url": "", "image_source": "", "image_alt": "", "osm_type": "way", "osm_id": 43525501, "osm_url": "https://www.openstreetmap.org/way/43525501"}}, {"type": "Feature", "geometry": {"type": "Point", "coordinates": [13.778812, 46.319007]}, "properties": {"country": "SI", "name": "Zimska soba", "alt_name": "", "is_bivouac": true, "evidence": "shelter_type", "ele_m": "", "capacity": "", "operator": "", "tourism": "", "shelter_type": "basic_hut", "website": "", "wikidata": "", "image_url": "https://commons.wikimedia.org/wiki/Special:FilePath/Triglav_National_Park_-_hut.jpg", "image_source": "commons:name-match<300m", "image_alt": "https://commons.wikimedia.org/wiki/Special:FilePath/Double_Lake_hut.jpg | https://commons.wikimedia.org/wiki/Special:FilePath/Ko%C4%8Da_pri_Triglavskih_jezerih_-_umgeben_von_Seen.jpg", "osm_type": "way", "osm_id": 498293307, "osm_url": "https://www.openstreetmap.org/way/498293307"}}, {"type": "Feature", "geometry": {"type": "Point", "coordinates": [15.092467, 46.639129]}, "properties": {"country": "SI", "name": "lovska koča", "alt_name": "", "is_bivouac": true, "evidence": "shelter_type", "ele_m": "", "capacity": "", "operator": "", "tourism": "", "shelter_type": "basic_hut", "website": "", "wikidata": "", "image_url": "", "image_source": "", "image_alt": "", "osm_type": "way", "osm_id": 983126741, "osm_url": "https://www.openstreetmap.org/way/983126741"}}, {"type": "Feature", "geometry": {"type": "Point", "coordinates": [14.579902, 46.282407]}, "properties": {"country": "SI", "name": "lovska koča", "alt_name": "", "is_bivouac": true, "evidence": "wilderness_hut", "ele_m": "", "capacity": "", "operator": "", "tourism": "wilderness_hut", "shelter_type": "", "website": "", "wikidata": "", "image_url": "", "image_source": "", "image_alt": "", "osm_type": "way", "osm_id": 1299061963, "osm_url": "https://www.openstreetmap.org/way/1299061963"}}]}